[{"OBJECT_NAME":"RANGE-A","OBJECT_ID":"2018-099R","EPOCH":"2026-03-09T16:56:29.908608","MEAN_MOTION":15.1245864,"ECCENTRICITY":0.00096737,"INCLINATION":97.4107,"RA_OF_ASC_NODE":114.1927,"ARG_OF_PERICENTER":340.4473,"MEAN_ANOMALY":19.6386,"EPHEMERIS_TYPE":0,"CLASSIFICATION_TYPE":"U","NORAD_CAT_ID":43773,"ELEMENT_SET_NO":999,"REV_AT_EPOCH":39745,"BSTAR":0.00032165687,"MEAN_MOTION_DOT":5.536e-5,"MEAN_MOTION_DDOT":0},{"OBJECT_NAME":"STARLINK-5752","OBJECT_ID":"2023-020J","EPOCH":"2026-03-09T22:00:01.999584","MEAN_MOTION":15.13538,"ECCENTRICITY":0.00010147,"INCLINATION":43.0004,"RA_OF_ASC_NODE":3.091,"ARG_OF_PERICENTER":327.4506,"MEAN_ANOMALY":133.8934,"EPHEMERIS_TYPE":0,"CLASSIFICATION_TYPE":"U","NORAD_CAT_ID":55577,"ELEMENT_SET_NO":999,"REV_AT_EPOCH":577,"BSTAR":0.0030117001,"MEAN_MOTION_DOT":0.00055137,"MEAN_MOTION_DDOT":0}]
